STARLINK-36492          
1 67332U 26002AD  26024.25002315 -.02046495  00000+0 -16913-1 0  9995
2 67332  42.9996 219.3259 0001514 276.0147 202.7882 15.72476308  4434
STARLINK-36427          
1 67333U 26002AE  26024.25002315 -.02048477  00000+0 -27633-1 0  9999
2 67333  42.9998 218.8927 0001711 262.7672  25.4176 15.60511182  4339
STARLINK-35343          
1 67334U 26003A   26024.25002315 -.00007198  00000+0 -43782-4 0  9990
2 67334  42.9991 122.6235 0001483 273.9572 133.2146 15.75043378  3478
STARLINK-36486          
1 67335U 26003B   26024.25002315 -.00037791  00000+0 -24371-3 0  9995
2 67335  42.9989 122.6189 0001609 276.5945 132.4790 15.75066335  3538
STARLINK-36480          
1 67336U 26003C   26024.25002315 -.00036235  00000+0 -23358-3 0  9992
2 67336  42.9989 122.6146 0001591 276.6085 134.3906 15.75059615  3531
STARLINK-36410          
1 67337U 26003D   26024.25002315  .00110484  00000+0  71263-3 0  9998
2 67337  42.9990 122.6099 0001536 251.9776 160.8161 15.75049762  3532
STARLINK-36413          
1 67338U 26003E   26024.25002315 -.00001355  00000+0 -57149-5 0  9996
2 67338  42.9990 122.6045 0001566 260.2810 154.5658 15.75033529  3534
STARLINK-36451          
1 67339U 26003F   26024.25002315  .00008565  00000+0  58832-4 0  9994
2 67339  42.9988 122.5993 0001476 269.4470 147.3232 15.75028844  3538
STARLINK-36339          
1 67340U 26003G   26024.25002315  .00036018  00000+0  23672-3 0  9993
2 67340  42.9990 122.5956 0001631 254.3880 164.2913 15.75025311  3533
STARLINK-36453          
1 67341U 26003H   26024.25002315 -.00025866  00000+0 -16568-3 0  9991
2 67341  42.9989 122.5899 0001031 250.4759 170.1216 15.75056200  3537
STARLINK-36432          
1 67342U 26003J   26024.25002315  .00048077  00000+0  31458-3 0  9994
2 67342  42.9989 122.5851 0001639 259.8654 162.6519 15.75018704  3525
STARLINK-36458          
1 67343U 26003K   26024.25002315 -.00022089  00000+0 -14097-3 0  9992
2 67343  42.9989 122.5808 0001407 268.0477 156.3738 15.75055117  3539
