CCSDS_OMM_VERS = 2.0
CREATION_DATE  = 
ORIGINATOR     = 

OBJECT_NAME    = STARLINK-36492
OBJECT_ID      = 2026-002AD
CENTER_NAME    = EARTH
REF_FRAME      = TEME
TIME_SYSTEM    = UTC
MEAN_ELEMENT_THEORY = SGP/SGP4

EPOCH          = 2026-01-24T06:00:02.000160
MEAN_MOTION    = 15.72476308
ECCENTRICITY   = .00015141
INCLINATION    = 42.9996
RA_OF_ASC_NODE = 219.3259
ARG_OF_PERICENTER = 276.0147
MEAN_ANOMALY   = 202.7882

EPHEMERIS_TYPE = 0
CLASSIFICATION_TYPE = U
NORAD_CAT_ID   = 67332
ELEMENT_SET_NO = 999
REV_AT_EPOCH   = 443
BSTAR          = -.16912524E-1
MEAN_MOTION_DOT = -.2046495E-1
MEAN_MOTION_DDOT = 0

CCSDS_OMM_VERS = 2.0
CREATION_DATE  = 
ORIGINATOR     = 

OBJECT_NAME    = STARLINK-36427
OBJECT_ID      = 2026-002AE
CENTER_NAME    = EARTH
REF_FRAME      = TEME
TIME_SYSTEM    = UTC
MEAN_ELEMENT_THEORY = SGP/SGP4

EPOCH          = 2026-01-24T06:00:02.000160
MEAN_MOTION    = 15.60511182
ECCENTRICITY   = .00017111
INCLINATION    = 42.9998
RA_OF_ASC_NODE = 218.8927
ARG_OF_PERICENTER = 262.7672
MEAN_ANOMALY   = 25.4176

EPHEMERIS_TYPE = 0
CLASSIFICATION_TYPE = U
NORAD_CAT_ID   = 67333
ELEMENT_SET_NO = 999
REV_AT_EPOCH   = 433
BSTAR          = -.27632738E-1
MEAN_MOTION_DOT = -.2048477E-1
MEAN_MOTION_DDOT = 0

CCSDS_OMM_VERS = 2.0
CREATION_DATE  = 
ORIGINATOR     = 

OBJECT_NAME    = STARLINK-35343
OBJECT_ID      = 2026-003A
CENTER_NAME    = EARTH
REF_FRAME      = TEME
TIME_SYSTEM    = UTC
MEAN_ELEMENT_THEORY = SGP/SGP4

EPOCH          = 2026-01-24T06:00:02.000160
MEAN_MOTION    = 15.75043378
ECCENTRICITY   = .00014836
INCLINATION    = 42.9991
RA_OF_ASC_NODE = 122.6235
ARG_OF_PERICENTER = 273.9572
MEAN_ANOMALY   = 133.2146

EPHEMERIS_TYPE = 0
CLASSIFICATION_TYPE = U
NORAD_CAT_ID   = 67334
ELEMENT_SET_NO = 999
REV_AT_EPOCH   = 347
BSTAR          = -.43782493E-4
MEAN_MOTION_DOT = -.7198E-4
MEAN_MOTION_DDOT = 0

CCSDS_OMM_VERS = 2.0
CREATION_DATE  = 
ORIGINATOR     = 

OBJECT_NAME    = STARLINK-36486
OBJECT_ID      = 2026-003B
CENTER_NAME    = EARTH
REF_FRAME      = TEME
TIME_SYSTEM    = UTC
MEAN_ELEMENT_THEORY = SGP/SGP4

EPOCH          = 2026-01-24T06:00:02.000160
MEAN_MOTION    = 15.75066335
ECCENTRICITY   = .00016095
INCLINATION    = 42.9989
RA_OF_ASC_NODE = 122.6189
ARG_OF_PERICENTER = 276.5945
MEAN_ANOMALY   = 132.4790

EPHEMERIS_TYPE = 0
CLASSIFICATION_TYPE = U
NORAD_CAT_ID   = 67335
ELEMENT_SET_NO = 999
REV_AT_EPOCH   = 353
BSTAR          = -.24371025E-3
MEAN_MOTION_DOT = -.37791E-3
MEAN_MOTION_DDOT = 0

CCSDS_OMM_VERS = 2.0
CREATION_DATE  = 
ORIGINATOR     = 

OBJECT_NAME    = STARLINK-36480
OBJECT_ID      = 2026-003C
CENTER_NAME    = EARTH
REF_FRAME      = TEME
TIME_SYSTEM    = UTC
MEAN_ELEMENT_THEORY = SGP/SGP4

EPOCH          = 2026-01-24T06:00:02.000160
MEAN_MOTION    = 15.75059615
ECCENTRICITY   = .00015917
INCLINATION    = 42.9989
RA_OF_ASC_NODE = 122.6146
ARG_OF_PERICENTER = 276.6085
MEAN_ANOMALY   = 134.3906

EPHEMERIS_TYPE = 0
CLASSIFICATION_TYPE = U
NORAD_CAT_ID   = 67336
ELEMENT_SET_NO = 999
REV_AT_EPOCH   = 353
BSTAR          = -.2335764E-3
MEAN_MOTION_DOT = -.36235E-3
MEAN_MOTION_DDOT = 0

CCSDS_OMM_VERS = 2.0
CREATION_DATE  = 
ORIGINATOR     = 

OBJECT_NAME    = STARLINK-36410
OBJECT_ID      = 2026-003D
CENTER_NAME    = EARTH
REF_FRAME      = TEME
TIME_SYSTEM    = UTC
MEAN_ELEMENT_THEORY = SGP/SGP4

EPOCH          = 2026-01-24T06:00:02.000160
MEAN_MOTION    = 15.75049762
ECCENTRICITY   = .00015368
INCLINATION    = 42.9990
RA_OF_ASC_NODE = 122.6099
ARG_OF_PERICENTER = 251.9776
MEAN_ANOMALY   = 160.8161

EPHEMERIS_TYPE = 0
CLASSIFICATION_TYPE = U
NORAD_CAT_ID   = 67337
ELEMENT_SET_NO = 999
REV_AT_EPOCH   = 353
BSTAR          = .71262797E-3
MEAN_MOTION_DOT = .110484E-2
MEAN_MOTION_DDOT = 0

CCSDS_OMM_VERS = 2.0
CREATION_DATE  = 
ORIGINATOR     = 

OBJECT_NAME    = STARLINK-36413
OBJECT_ID      = 2026-003E
CENTER_NAME    = EARTH
REF_FRAME      = TEME
TIME_SYSTEM    = UTC
MEAN_ELEMENT_THEORY = SGP/SGP4

EPOCH          = 2026-01-24T06:00:02.000160
MEAN_MOTION    = 15.75033529
ECCENTRICITY   = .00015668
INCLINATION    = 42.9990
RA_OF_ASC_NODE = 122.6045
ARG_OF_PERICENTER = 260.2810
MEAN_ANOMALY   = 154.5658

EPHEMERIS_TYPE = 0
CLASSIFICATION_TYPE = U
NORAD_CAT_ID   = 67338
ELEMENT_SET_NO = 999
REV_AT_EPOCH   = 353
BSTAR          = -.571486E-5
MEAN_MOTION_DOT = -.1355E-4
MEAN_MOTION_DDOT = 0

CCSDS_OMM_VERS = 2.0
CREATION_DATE  = 
ORIGINATOR     = 

OBJECT_NAME    = STARLINK-36451
OBJECT_ID      = 2026-003F
CENTER_NAME    = EARTH
REF_FRAME      = TEME
TIME_SYSTEM    = UTC
MEAN_ELEMENT_THEORY = SGP/SGP4

EPOCH          = 2026-01-24T06:00:02.000160
MEAN_MOTION    = 15.75028844
ECCENTRICITY   = .00014769
INCLINATION    = 42.9988
RA_OF_ASC_NODE = 122.5993
ARG_OF_PERICENTER = 269.4470
MEAN_ANOMALY   = 147.3232

EPHEMERIS_TYPE = 0
CLASSIFICATION_TYPE = U
NORAD_CAT_ID   = 67339
ELEMENT_SET_NO = 999
REV_AT_EPOCH   = 353
BSTAR          = .58832409E-4
MEAN_MOTION_DOT = .8565E-4
MEAN_MOTION_DDOT = 0

CCSDS_OMM_VERS = 2.0
CREATION_DATE  = 
ORIGINATOR     = 

OBJECT_NAME    = STARLINK-36339
OBJECT_ID      = 2026-003G
CENTER_NAME    = EARTH
REF_FRAME      = TEME
TIME_SYSTEM    = UTC
MEAN_ELEMENT_THEORY = SGP/SGP4

EPOCH          = 2026-01-24T06:00:02.000160
MEAN_MOTION    = 15.75025311
ECCENTRICITY   = .00016317
INCLINATION    = 42.9990
RA_OF_ASC_NODE = 122.5956
ARG_OF_PERICENTER = 254.3880
MEAN_ANOMALY   = 164.2913

EPHEMERIS_TYPE = 0
CLASSIFICATION_TYPE = U
NORAD_CAT_ID   = 67340
ELEMENT_SET_NO = 999
REV_AT_EPOCH   = 353
BSTAR          = .23671724E-3
MEAN_MOTION_DOT = .36018E-3
MEAN_MOTION_DDOT = 0

CCSDS_OMM_VERS = 2.0
CREATION_DATE  = 
ORIGINATOR     = 

OBJECT_NAME    = STARLINK-36453
OBJECT_ID      = 2026-003H
CENTER_NAME    = EARTH
REF_FRAME      = TEME
TIME_SYSTEM    = UTC
MEAN_ELEMENT_THEORY = SGP/SGP4

EPOCH          = 2026-01-24T06:00:02.000160
MEAN_MOTION    = 15.75056200
ECCENTRICITY   = .00010312
INCLINATION    = 42.9989
RA_OF_ASC_NODE = 122.5899
ARG_OF_PERICENTER = 250.4759
MEAN_ANOMALY   = 170.1216

EPHEMERIS_TYPE = 0
CLASSIFICATION_TYPE = U
NORAD_CAT_ID   = 67341
ELEMENT_SET_NO = 999
REV_AT_EPOCH   = 353
BSTAR          = -.16567679E-3
MEAN_MOTION_DOT = -.25866E-3
MEAN_MOTION_DDOT = 0

CCSDS_OMM_VERS = 2.0
CREATION_DATE  = 
ORIGINATOR     = 

OBJECT_NAME    = STARLINK-36432
OBJECT_ID      = 2026-003J
CENTER_NAME    = EARTH
REF_FRAME      = TEME
TIME_SYSTEM    = UTC
MEAN_ELEMENT_THEORY = SGP/SGP4

EPOCH          = 2026-01-24T06:00:02.000160
MEAN_MOTION    = 15.75018704
ECCENTRICITY   = .00016396
INCLINATION    = 42.9989
RA_OF_ASC_NODE = 122.5851
ARG_OF_PERICENTER = 259.8654
MEAN_ANOMALY   = 162.6519

EPHEMERIS_TYPE = 0
CLASSIFICATION_TYPE = U
NORAD_CAT_ID   = 67342
ELEMENT_SET_NO = 999
REV_AT_EPOCH   = 352
BSTAR          = .31457518E-3
MEAN_MOTION_DOT = .48077E-3
MEAN_MOTION_DDOT = 0

CCSDS_OMM_VERS = 2.0
CREATION_DATE  = 
ORIGINATOR     = 

OBJECT_NAME    = STARLINK-36458
OBJECT_ID      = 2026-003K
CENTER_NAME    = EARTH
REF_FRAME      = TEME
TIME_SYSTEM    = UTC
MEAN_ELEMENT_THEORY = SGP/SGP4

EPOCH          = 2026-01-24T06:00:02.000160
MEAN_MOTION    = 15.75055117
ECCENTRICITY   = .00014076
INCLINATION    = 42.9989
RA_OF_ASC_NODE = 122.5808
ARG_OF_PERICENTER = 268.0477
MEAN_ANOMALY   = 156.3738

EPHEMERIS_TYPE = 0
CLASSIFICATION_TYPE = U
NORAD_CAT_ID   = 67343
ELEMENT_SET_NO = 999
REV_AT_EPOCH   = 353
BSTAR          = -.14096601E-3
MEAN_MOTION_DOT = -.22089E-3
MEAN_MOTION_DDOT = 0

